ONEWEB-0512             
1 54130U 22138T   22313.58334491  .00074560  00000+0  76584-2 0  9990
2 54130  87.4285 211.1424 0013588 229.2929 313.1629 14.89940622  1308
ONEWEB-0513             
1 54131U 22138U   22313.58334491 -.00927853  00000+0 -19914+0 0  9996
2 54131  87.4731 211.2761 0008924 228.9798 355.0734 14.61524120  1301
ONEWEB-0514             
1 54132U 22138V   22313.58334491  .00074090  00000+0  74214-2 0  9998
2 54132  87.4311 211.1361 0010278 218.4393  30.3688 14.90981282  1300
ONEWEB-0515             
1 54133U 22138W   22313.58334491  .00070995  00000+0  70193-2 0  9991
2 54133  87.3420 211.0995 0008795 226.1788  58.9195 14.91530559  1305
ONEWEB-0516             
1 54134U 22138X   22313.58334491  .00143616  00000+0  14320-1 0  9992
2 54134  87.4315 211.1412 0010889 216.9289  21.0753 14.90766884  1307
ONEWEB-0517             
1 54135U 22138Y   22313.58334491  .00074781  00000+0  75770-2 0  9996
2 54135  87.4297 211.1418 0012411 220.4935 357.4708 14.90499627  1308
ONEWEB-0518             
1 54136U 22138Z   22313.58334491  .00074832  00000+0  76533-2 0  9992
2 54136  87.4313 211.1472 0013119 225.9551 327.8984 14.90117548  1304
ONEWEB-0519             
1 54137U 22138AA  22313.58334491  .00073535  00000+0  73339-2 0  9993
2 54137  87.4317 211.1396 0009549 220.2416  40.1038 14.91163511  1301
ONEWEB-0520             
1 54138U 22138AB  22313.58334491  .00074878  00000+0  75711-2 0  9991
2 54138  87.4326 211.1444 0012209 220.0707   3.3649 14.90584341  1300
ONEWEB-0521             
1 54139U 22138AC  22313.58334491 -.00093110  00000+0 -99759-2 0  9992
2 54139  87.4303 211.1529 0013119 243.5837 250.2371 14.89234725  1306
ONEWEB-0522             
1 54140U 22138AD  22313.58334491  .00074057  00000+0  76390-2 0  9997
2 54140  87.4324 211.1531 0014174 232.2164 299.3106 14.89766994  1302
ONEWEB-0523             
1 54141U 22138AE  22313.58334491  .00069978  00000+0  68880-2 0  9999
2 54141  87.3461 211.1080 0008285 234.7415  61.5467 14.91717760  1304
ONEWEB-0524             
1 54142U 22138AF  22313.58334491  .00070536  00000+0  69481-2 0  9990
2 54142  87.3425 211.0996 0008290 233.5601  60.2361 14.91684449  1306
ONEWEB-0525             
1 54143U 22138AG  22313.58334491  .00074678  00000+0  75874-2 0  9995
2 54143  87.4330 211.1463 0011955 220.5573 353.7865 14.90393531  1306
ONEWEB-0526             
1 54144U 22138AH  22313.58334491  .00074027  00000+0  76411-2 0  9992
2 54144  87.4305 211.1491 0014210 232.6899 296.8823 14.89739400  1300
ONEWEB-0529             
1 54145U 22138AJ  22313.58334491  .00074413  00000+0  76192-2 0  9998
2 54145  87.4295 211.1436 0013690 226.9422 323.7104 14.90067731  1302
ONEWEB-0531             
1 54146U 22138AK  22313.58334491  .00070548  00000+0  69635-2 0  9998
2 54146  87.3459 211.1109 0008419 233.9198  54.8271 14.91602005  1309
ONEWEB-0535             
1 54147U 22138AL  22313.58334491  .00027875  00000+0  27955-2 0  9993
2 54147  87.4314 211.1368 0009341 219.3780  43.4481 14.91180218  1302
ONEWEB-0536             
1 54148U 22138AM  22313.58334491  .00072335  00000+0  71620-2 0  9993
2 54148  87.3661 211.1194 0008388 226.4014  53.7295 14.91468646  1304
GSLV R/B                
1 54149U 22138AN  22313.58093294  .00002282  00000+0  24906-3 0  9997
2 54149  87.3904 211.1254 0023726 214.0082 145.9625 14.87279102  2655
GONETS-M 23             
1 54150U 22139A   22313.51772348  .00000010  00000+0  00000+0 0  9999
2 54150  82.5050  85.8239 0016756 206.3278 153.6952 12.41994522  2209
GONETS-M 24             
1 54151U 22139B   22313.51099254  .00000010  00000+0  00000+0 0  9998
2 54151  82.4960  85.8056 0012509 228.1564 131.8448 12.43606142  2206
GONETS-M 25             
1 54152U 22139C   22313.50586663  .00000010  00000+0  00000+0 0  9993
2 54152  82.5002  85.8108 0013730 222.1701 137.8334 12.43968573  2206
PROGRESS-MS 21          
1 54155U 22140A   22312.55921296  .00013108  00000+0  23836-3 0  9995
2 54155  51.6454 341.3893 0006509  50.3460  48.4298 15.49855931367579
STARLINK-5290           
1 54157U 22141A   22312.09839272 -.00315963  00000+0 -20596-2 0  9994
2 54157  53.2201  89.2202 0000574  82.7927 277.3160 15.76057927  1771
STARLINK-5297           
1 54158U 22141B   22313.58334491 -.00063760  00000+0 -45172-3 0  9996
2 54158  53.2178  81.8646 0001756  18.6785 119.7937 15.73280894  1306
STARLINK-5294           
1 54159U 22141C   22313.58334491 -.00162034  00000+0 -11673-2 0  9999
2 54159  53.2191  81.8648 0001816  32.7865 106.5158 15.73300378  1306
STARLINK-5233           
1 54160U 22141D   22313.58334491  .00054343  00000+0  38951-3 0  9991
2 54160  53.2178  81.8021 0001382  28.3352 140.5306 15.73175747  1301
STARLINK-5269           
1 54161U 22141E   22313.58334491 -.00053053  00000+0 -37530-3 0  9993
2 54161  53.2174  81.8620 0001769  27.3334 112.4867 15.73240007  1303
STARLINK-5273           
1 54162U 22141F   22313.58334491  .00048955  00000+0  35064-3 0  9997
2 54162  53.2177  81.8599 0001656  50.9019  89.9281 15.73236858  1306
STARLINK-5161           
1 54163U 22141G   22313.58334491 -.00076495  00000+0 -54445-3 0  9994
2 54163  53.2175  81.8530 0001955  39.9363 104.6587 15.73245680  2006
STARLINK-5278           
1 54164U 22141H   22313.58334491  .00055301  00000+0  39539-3 0  9993
2 54164  53.2176  81.8543 0001632  36.0369 107.7517 15.73226776  2000
STARLINK-5279           
1 54165U 22141J   22313.58334491 -.00058920  00000+0 -41693-3 0  9990
2 54165  53.2187  81.8595 0002116  47.8375  93.6265 15.73274950  1307
STARLINK-5280           
1 54166U 22141K   22313.58334491  .00050857  00000+0  36420-3 0  9992
2 54166  53.2171  81.8503 0001108  24.0364 120.9629 15.73224903  1306
STARLINK-5243           
1 54167U 22141L   22313.58334491  .00014681  00000+0  10861-3 0  9999
2 54167  53.2189  81.8583 0001941  44.3361  97.6944 15.73249498  1307
STARLINK-5245           
1 54168U 22141M   22313.58334491 -.00038337  00000+0 -26898-3 0  9993
2 54168  53.2172  81.8488 0001792  48.4344  97.8331 15.73283960  1308
STARLINK-5282           
1 54169U 22141N   22313.58334491 -.00057585  00000+0 -40714-3 0  9993
2 54169  53.2172  81.8546 0001644  36.2138 107.0181 15.73287167  1306
STARLINK-5155           
1 54170U 22141P   22313.58334491  .00062652  00000+0  44788-3 0  9999
2 54170  53.2184  81.8478 0001394 332.3282 174.6141 15.73179595  1993
STARLINK-5229           
1 54171U 22141Q   22313.58334491 -.00087139  00000+0 -62086-3 0  9990
2 54171  53.2179  81.8554 0001596  46.7295  96.0447 15.73275354  2006
STARLINK-5117           
1 54172U 22141R   22313.58334491 -.00040484  00000+0 -28505-3 0  9991
2 54172  53.2168  81.8434 0001776  31.8300 116.3265 15.73228126  2003
STARLINK-5242           
1 54173U 22141S   22313.58334491  .00064770  00000+0  46235-3 0  9994
2 54173  53.2170  81.8497 0001736  43.5474 102.0066 15.73199853  2009
STARLINK-5248           
1 54174U 22141T   22313.58334491 -.00669584  00000+0 -31006-2 0  9990
2 54174  53.2173  81.3438 0006505 270.7799 123.3417 15.84315367  1306
STARLINK-5256           
1 54175U 22141U   22313.58334491 -.00104351  00000+0 -74603-3 0  9998
2 54175  53.2174  81.8454 0001842  36.6503 110.9420 15.73269914  2000
STARLINK-5154           
1 54176U 22141V   22313.58334491 -.00068718  00000+0 -48767-3 0  9997
2 54176  53.2165  81.8385 0001778  32.4082 118.1154 15.73271328  2004
STARLINK-5186           
1 54177U 22141W   22313.58334491 -.00079650  00000+0 -56676-3 0  9993
2 54177  53.2179  81.8438 0001658  36.6827 112.0469 15.73269055  1307
STARLINK-5164           
1 54178U 22141X   22313.58334491  .00067353  00000+0  48201-3 0  9994
2 54178  53.2165  81.8370 0001448 324.4718 186.6824 15.73124983  2002
STARLINK-5122           
1 54179U 22141Y   22313.58334491 -.00047146  00000+0 -33241-3 0  9993
2 54179  53.2171  81.8420 0001364  41.2281 108.1074 15.73267840  2233
STARLINK-5228           
1 54180U 22141Z   22313.58334491  .00060327  00000+0  43157-3 0  9996
2 54180  53.2165  81.8313 0002316  56.3948  97.5255 15.73176508  1303
STARLINK-5227           
1 54181U 22141AA  22313.58334491 -.00087627  00000+0 -62443-3 0  9990
2 54181  53.2168  81.8365 0001791  31.5099 120.2010 15.73273267  2238
STARLINK-5231           
1 54182U 22141AB  22313.58334491  .00058217  00000+0  41653-3 0  9992
2 54182  53.2155  81.8260 0001617  32.0783 124.2509 15.73189133  2237
STARLINK-5239           
1 54183U 22141AC  22313.58334491 -.00106953  00000+0 -76434-3 0  9991
2 54183  53.2175  81.8336 0001736  37.0472 116.4883 15.73289879  2232
STARLINK-5162           
1 54184U 22141AD  22313.58334491 -.00085828  00000+0 -61099-3 0  9990
2 54184  53.2153  81.8286 0001689  37.9050 116.7567 15.73288787  2230
STARLINK-5235           
1 54185U 22141AE  22313.58334491 -.00091611  00000+0 -65275-3 0  9998
2 54185  53.2188  81.8357 0001703  36.3902 116.4985 15.73294464  2234
STARLINK-5194           
1 54186U 22141AF  22313.58334491 -.00039869  00000+0 -28006-3 0  9997
2 54186  53.2159  81.8230 0001640  37.9544 119.6813 15.73275982  1308
STARLINK-5240           
1 54187U 22141AG  22313.58334491 -.00088238  00000+0 -62893-3 0  9994
2 54187  53.2173  81.8354 0001672  48.2948 104.0160 15.73271092  2234
STARLINK-5238           
1 54188U 22141AH  22313.58334491 -.00071274  00000+0 -50570-3 0  9996
2 54188  53.2143  81.8226 0001715  38.6216 118.4456 15.73291262  1304
STARLINK-5182           
1 54189U 22141AJ  22313.58334491  .00064922  00000+0  46355-3 0  9993
2 54189  53.2171  81.8293 0002174  43.7369 111.4691 15.73192094  1303
STARLINK-5281           
1 54190U 22141AK  22313.58334491 -.00054935  00000+0 -38831-3 0  9990
2 54190  53.2160  81.8223 0001539  42.7195 115.5416 15.73273469  1302
STARLINK-4619           
1 54191U 22141AL  22313.58334491 -.00070102  00000+0 -49739-3 0  9994
2 54191  53.2162  81.8269 0001868  37.2882 118.5822 15.73283790  1304
